[{"OBJECT_NAME":"STARLINK-36810","OBJECT_ID":"2026-035V","EPOCH":"2026-03-03T14:00:03.000384","MEAN_MOTION":16.02088062,"ECCENTRICITY":0.0001414,"INCLINATION":97.2756,"RA_OF_ASC_NODE":354.4581,"ARG_OF_PERICENTER":104.7313,"MEAN_ANOMALY":36.1055,"EPHEMERIS_TYPE":0,"CLASSIFICATION_TYPE":"U","NORAD_CAT_ID":67898,"ELEMENT_SET_NO":999,"REV_AT_EPOCH":277,"BSTAR":-0.0018187,"MEAN_MOTION_DOT":-0.01035164,"MEAN_MOTION_DDOT":0.00035786},{"OBJECT_NAME":"STARLINK-36878","OBJECT_ID":"2026-035W","EPOCH":"2026-03-03T14:00:03.000384","MEAN_MOTION":16.02295648,"ECCENTRICITY":0.0001204,"INCLINATION":97.2753,"RA_OF_ASC_NODE":354.461,"ARG_OF_PERICENTER":81.2545,"MEAN_ANOMALY":66.2,"EPHEMERIS_TYPE":0,"CLASSIFICATION_TYPE":"U","NORAD_CAT_ID":67899,"ELEMENT_SET_NO":999,"REV_AT_EPOCH":277,"BSTAR":-0.001814,"MEAN_MOTION_DOT":-0.01044909,"MEAN_MOTION_DDOT":0.000365},{"OBJECT_NAME":"STARLINK-36361","OBJECT_ID":"2026-035X","EPOCH":"2026-03-03T14:00:03.000384","MEAN_MOTION":16.02394845,"ECCENTRICITY":0.0001164,"INCLINATION":97.2753,"RA_OF_ASC_NODE":354.4625,"ARG_OF_PERICENTER":79.3531,"MEAN_ANOMALY":71.7281,"EPHEMERIS_TYPE":0,"CLASSIFICATION_TYPE":"U","NORAD_CAT_ID":67900,"ELEMENT_SET_NO":999,"REV_AT_EPOCH":277,"BSTAR":-0.0017849,"MEAN_MOTION_DOT":-0.01034176,"MEAN_MOTION_DDOT":0.0003585},{"OBJECT_NAME":"STARLINK-36336","OBJECT_ID":"2026-035Y","EPOCH":"2026-03-03T14:00:03.000384","MEAN_MOTION":16.02741017,"ECCENTRICITY":0.0001307,"INCLINATION":97.2756,"RA_OF_ASC_NODE":354.4675,"ARG_OF_PERICENTER":114.1337,"MEAN_ANOMALY":47.927,"EPHEMERIS_TYPE":0,"CLASSIFICATION_TYPE":"U","NORAD_CAT_ID":67901,"ELEMENT_SET_NO":999,"REV_AT_EPOCH":282,"BSTAR":-0.0017695,"MEAN_MOTION_DOT":-0.01046129,"MEAN_MOTION_DDOT":0.00036768},{"OBJECT_NAME":"STARLINK-36876","OBJECT_ID":"2026-035Z","EPOCH":"2026-03-03T14:00:03.000384","MEAN_MOTION":16.02501466,"ECCENTRICITY":0.000148,"INCLINATION":97.2758,"RA_OF_ASC_NODE":354.4647,"ARG_OF_PERICENTER":110.0559,"MEAN_ANOMALY":44.1868,"EPHEMERIS_TYPE":0,"CLASSIFICATION_TYPE":"U","NORAD_CAT_ID":67902,"ELEMENT_SET_NO":999,"REV_AT_EPOCH":277,"BSTAR":-0.0017898,"MEAN_MOTION_DOT":-0.01043478,"MEAN_MOTION_DDOT":0.00036494},{"OBJECT_NAME":"STARLINK-36257","OBJECT_ID":"2026-035AA","EPOCH":"2026-03-03T14:00:03.000384","MEAN_MOTION":16.02611015,"ECCENTRICITY":0.0001297,"INCLINATION":97.2754,"RA_OF_ASC_NODE":354.4651,"ARG_OF_PERICENTER":96.7311,"MEAN_ANOMALY":60.8311,"EPHEMERIS_TYPE":0,"CLASSIFICATION_TYPE":"U","NORAD_CAT_ID":67903,"ELEMENT_SET_NO":999,"REV_AT_EPOCH":282,"BSTAR":-0.0017863,"MEAN_MOTION_DOT":-0.0104806,"MEAN_MOTION_DDOT":0.00036838},{"OBJECT_NAME":"STARLINK-36301","OBJECT_ID":"2026-037A","EPOCH":"2026-03-03T14:00:03.000384","MEAN_MOTION":15.97346447,"ECCENTRICITY":0.0001381,"INCLINATION":43.0002,"RA_OF_ASC_NODE":236.3782,"ARG_OF_PERICENTER":264.0887,"MEAN_ANOMALY":318.0085,"EPHEMERIS_TYPE":0,"CLASSIFICATION_TYPE":"U","NORAD_CAT_ID":67932,"ELEMENT_SET_NO":999,"REV_AT_EPOCH":212,"BSTAR":-0.0029675,"MEAN_MOTION_DOT":-0.01357719,"MEAN_MOTION_DDOT":0.00055759},{"OBJECT_NAME":"STARLINK-36852","OBJECT_ID":"2026-037B","EPOCH":"2026-03-03T14:00:03.000384","MEAN_MOTION":15.97460287,"ECCENTRICITY":0.0001249,"INCLINATION":43.0004,"RA_OF_ASC_NODE":236.3747,"ARG_OF_PERICENTER":264.222,"MEAN_ANOMALY":319.2231,"EPHEMERIS_TYPE":0,"CLASSIFICATION_TYPE":"U","NORAD_CAT_ID":67933,"ELEMENT_SET_NO":999,"REV_AT_EPOCH":221,"BSTAR":-0.0029446,"MEAN_MOTION_DOT":-0.01355793,"MEAN_MOTION_DDOT":0.0005568},{"OBJECT_NAME":"STARLINK-36861","OBJECT_ID":"2026-037C","EPOCH":"2026-03-03T14:00:03.000384","MEAN_MOTION":15.97597259,"ECCENTRICITY":0.0001361,"INCLINATION":43.0003,"RA_OF_ASC_NODE":236.3701,"ARG_OF_PERICENTER":268.5302,"MEAN_ANOMALY":316.8494,"EPHEMERIS_TYPE":0,"CLASSIFICATION_TYPE":"U","NORAD_CAT_ID":67934,"ELEMENT_SET_NO":999,"REV_AT_EPOCH":221,"BSTAR":-0.0029234,"MEAN_MOTION_DOT":-0.01356323,"MEAN_MOTION_DDOT":0.00055799},{"OBJECT_NAME":"STARLINK-36860","OBJECT_ID":"2026-037D","EPOCH":"2026-03-03T14:00:03.000384","MEAN_MOTION":15.97742292,"ECCENTRICITY":0.0001512,"INCLINATION":43.0003,"RA_OF_ASC_NODE":236.3654,"ARG_OF_PERICENTER":272.0924,"MEAN_ANOMALY":315.3019,"EPHEMERIS_TYPE":0,"CLASSIFICATION_TYPE":"U","NORAD_CAT_ID":67935,"ELEMENT_SET_NO":999,"REV_AT_EPOCH":221,"BSTAR":-0.0029201,"MEAN_MOTION_DOT":-0.01365707,"MEAN_MOTION_DDOT":0.00056593},{"OBJECT_NAME":"STARLINK-36848","OBJECT_ID":"2026-037E","EPOCH":"2026-03-03T14:00:03.000384","MEAN_MOTION":15.98009049,"ECCENTRICITY":0.0001546,"INCLINATION":43.0003,"RA_OF_ASC_NODE":236.3553,"ARG_OF_PERICENTER":270.1059,"MEAN_ANOMALY":321.0753,"EPHEMERIS_TYPE":0,"CLASSIFICATION_TYPE":"U","NORAD_CAT_ID":67936,"ELEMENT_SET_NO":999,"REV_AT_EPOCH":221,"BSTAR":-0.0028636,"MEAN_MOTION_DOT":-0.01359471,"MEAN_MOTION_DDOT":0.00056277},{"OBJECT_NAME":"STARLINK-36370","OBJECT_ID":"2026-037F","EPOCH":"2026-03-03T14:00:03.000384","MEAN_MOTION":15.97879454,"ECCENTRICITY":0.0001662,"INCLINATION":43.0005,"RA_OF_ASC_NODE":236.3601,"ARG_OF_PERICENTER":269.99,"MEAN_ANOMALY":319.4677,"EPHEMERIS_TYPE":0,"CLASSIFICATION_TYPE":"U","NORAD_CAT_ID":67937,"ELEMENT_SET_NO":999,"REV_AT_EPOCH":221,"BSTAR":-0.0028804,"MEAN_MOTION_DOT":-0.01357617,"MEAN_MOTION_DDOT":0.00056061},{"OBJECT_NAME":"STARLINK-36371","OBJECT_ID":"2026-037G","EPOCH":"2026-03-03T14:00:03.000384","MEAN_MOTION":15.98125376,"ECCENTRICITY":0.0001542,"INCLINATION":43.0003,"RA_OF_ASC_NODE":236.3511,"ARG_OF_PERICENTER":270.2563,"MEAN_ANOMALY":322.4725,"EPHEMERIS_TYPE":0,"CLASSIFICATION_TYPE":"U","NORAD_CAT_ID":67938,"ELEMENT_SET_NO":999,"REV_AT_EPOCH":221,"BSTAR":-0.0028331,"MEAN_MOTION_DOT":-0.01353827,"MEAN_MOTION_DDOT":0.00055918},{"OBJECT_NAME":"STARLINK-36246","OBJECT_ID":"2026-037H","EPOCH":"2026-03-03T14:00:03.000384","MEAN_MOTION":15.98239336,"ECCENTRICITY":0.0001674,"INCLINATION":43.0004,"RA_OF_ASC_NODE":236.3476,"ARG_OF_PERICENTER":270.5425,"MEAN_ANOMALY":323.7249,"EPHEMERIS_TYPE":0,"CLASSIFICATION_TYPE":"U","NORAD_CAT_ID":67939,"ELEMENT_SET_NO":999,"REV_AT_EPOCH":212,"BSTAR":-0.0027979,"MEAN_MOTION_DOT":-0.01345738,"MEAN_MOTION_DDOT":0.00055373},{"OBJECT_NAME":"STARLINK-36907","OBJECT_ID":"2026-037J","EPOCH":"2026-03-03T14:00:03.000384","MEAN_MOTION":15.98618727,"ECCENTRICITY":0.0001614,"INCLINATION":43.0003,"RA_OF_ASC_NODE":236.3336,"ARG_OF_PERICENTER":266.6299,"MEAN_ANOMALY":332.8743,"EPHEMERIS_TYPE":0,"CLASSIFICATION_TYPE":"U","NORAD_CAT_ID":67940,"ELEMENT_SET_NO":999,"REV_AT_EPOCH":221,"BSTAR":-0.0027232,"MEAN_MOTION_DOT":-0.01338137,"MEAN_MOTION_DDOT":0.00055021},{"OBJECT_NAME":"STARLINK-36927","OBJECT_ID":"2026-037K","EPOCH":"2026-03-03T14:00:03.000384","MEAN_MOTION":15.98861766,"ECCENTRICITY":0.0001606,"INCLINATION":43.0003,"RA_OF_ASC_NODE":236.3254,"ARG_OF_PERICENTER":268.0662,"MEAN_ANOMALY":334.7143,"EPHEMERIS_TYPE":0,"CLASSIFICATION_TYPE":"U","NORAD_CAT_ID":67941,"ELEMENT_SET_NO":999,"REV_AT_EPOCH":221,"BSTAR":-0.0026799,"MEAN_MOTION_DOT":-0.01335065,"MEAN_MOTION_DDOT":0.0005493}]
